OBJECT_NAME,OBJECT_ID,EPOCH,MEAN_MOTION,ECCENTRICITY,INCLINATION,RA_OF_ASC_NODE,ARG_OF_PERICENTER,MEAN_ANOMALY,EPHEMERIS_TYPE,CLASSIFICATION_TYPE,NORAD_CAT_ID,ELEMENT_SET_NO,REV_AT_EPOCH,BSTAR,MEAN_MOTION_DOT,MEAN_MOTION_DDOT
INTELSAT 35E (IS-35E),2017-041A,2026-06-16T17:59:04.443936,1.00268682,.0001598,0.0182,331.6195,107.3554,61.2978,0,U,42818,999,3281,0,-.241E-5,0
COSMOS 2520,2017-046A,2026-06-16T06:23:07.198656,1.00270799,.00015102,0.0473,89.6127,18.8355,296.8687,0,U,42907,999,3238,0,.136E-5,0
TDRS 13,2017-047A,2026-06-16T19:48:21.089376,1.00271480,.001445,3.4517,2.7361,106.3621,81.6405,0,U,42915,999,3234,0,-.104E-5,0
QZS-3 (MICHIBIKI-3),2017-048A,2026-06-16T20:27:45.041760,1.00276177,.0001843,0.0688,169.8241,272.7581,256.4293,0,U,42917,999,3225,0,-.351E-5,0
AMAZONAS 5,2017-053A,2026-06-16T17:51:20.187360,1.00271034,.0002062,0.0299,328.6551,58.1833,84.9962,0,U,42934,999,3204,0,-.285E-5,0
ASIASAT 9,2017-057A,2026-06-16T18:43:38.033184,1.00264039,.0002496,0.0420,48.7885,27.1098,232.2103,0,U,42942,999,3185,0,0,0
INTELSAT 37E (IS-37E),2017-059A,2026-06-16T18:03:41.501088,1.00271710,.0002368,0.0164,21.9885,84.8898,51.0770,0,U,42950,999,3206,0,-.143E-5,0
BSAT-4A,2017-059B,2026-06-14T19:36:38.641824,1.00269277,.00038622,0.0440,28.2570,39.4526,239.3850,0,U,42951,999,3177,0,-.344E-5,0
QZS-4 (MICHIBIKI-4),2017-062A,2026-06-16T08:29:46.528800,1.00250450,.07451754,40.1083,343.4922,271.7618,273.8478,0,U,42965,999,3179,0,-.348E-5,0
SES-11 (ECHOSTAR 105),2017-063A,2026-06-16T22:46:56.043264,1.00270676,.0002695,0.0163,339.2920,91.4418,71.2609,0,U,42967,999,3172,0,-.92E-6,0
KOREASAT 5A,2017-067A,2026-06-16T18:18:01.480896,1.00270926,.0000587,0.0144,31.4953,63.7184,197.4720,0,U,42984,999,3152,0,-.361E-5,0
ALCOMSAT 1,2017-078A,2026-06-16T17:36:10.536192,1.00269338,.0002237,0.0335,265.8754,167.6091,70.7503,0,U,43039,999,3129,0,-.189E-5,0
SBIRS GEO-3 (USA 282),2018-009A,2026-06-16T17:23:22.867008,1.00271116,.0001807,2.1841,12.0948,65.6242,288.7129,0,U,43162,999,3083,0,.125E-5,0
AL YAH 3,2018-012A,2026-06-16T18:03:11.548800,1.00269871,.0003875,1.5513,83.1113,0.7305,71.8540,0,U,43174,999,3084,0,-.159E-5,0
SES-14,2018-012B,2026-06-16T17:55:19.803072,1.00269888,.000081,0.0216,33.3553,49.1617,43.8189,0,U,43175,999,702,0,-.281E-5,0
GOES 17,2018-022A,2026-06-16T16:00:16.349760,1.00269739,.0000413,0.9364,85.7204,33.4338,296.3372,0,U,43226,999,3041,0,-.185E-5,0
HISPASAT 30W-6,2018-023A,2026-06-16T09:27:01.632096,1.00270010,.0005672,0.0486,44.7049,25.0402,306.6684,0,U,43228,999,3039,0,-.218E-5,0
SUPERBIRD-B3,2018-033A,2026-06-16T17:12:23.920128,1.00271513,.0000916,0.0152,348.1525,89.9252,247.0085,0,U,43271,999,3005,0,-.95E-6,0
HYLAS 4,2018-033B,2026-06-15T16:19:25.094784,1.00268678,.00007668,0.0163,21.0818,53.9327,40.2992,0,U,43272,999,3005,0,-.232E-5,0
IRNSS-1I,2018-035A,2026-06-15T20:09:20.172384,1.00272046,.00178117,28.7520,74.2167,181.5598,5.5147,0,U,43286,999,3006,0,.62E-6,0
USA 283,2018-036A,2026-06-15T11:59:15.199008,1.00267801,.0000468,0.0182,1.8047,172.3670,43.5385,0,U,43339,999,2527,0,0,0
COSMOS 2526,2018-037A,2026-06-16T20:28:00.019200,1.00270287,.0000521,0.0301,74.6789,134.9835,130.5176,0,U,43432,999,2995,0,-.347E-5,0
APSTAR-6C,2018-041A,2026-06-16T15:21:47.080800,1.00269117,.0000963,0.0252,11.4570,329.5517,288.3422,0,U,43450,999,2980,0,-.32E-5,0
BANGABANDHUSAT-1,2018-044A,2026-06-16T18:25:36.827040,1.00269974,.0001626,0.0240,77.0295,4.9700,218.5323,0,U,43463,999,2970,0,-.365E-5,0
SES-12,2018-049A,2026-06-16T18:35:53.774016,1.00268346,.0000755,0.0164,19.2893,260.7109,359.0132,0,U,43488,999,2941,0,-.271E-5,0
FENGYUN 2H,2018-050A,2026-06-16T18:31:28.990848,1.00269582,.0001983,3.0297,79.0759,138.6061,44.6323,0,U,43491,999,2943,0,-.134E-5,0
BEIDOU-2 IGSO-7,2018-057A,2026-06-15T22:07:43.170816,1.00251416,.01050678,55.1938,163.0687,238.0100,305.1025,0,U,43539,999,2911,0,-.27E-6,0
TELSTAR 19V,2018-059A,2026-06-15T05:55:00.579936,1.00269701,.0002418,0.0197,163.3787,312.0896,173.8125,0,U,43562,999,2912,0,-.276E-5,0
TELKOM 4 (MERAH PUTIH),2018-064A,2026-06-16T20:22:15.569184,1.00270495,.0001234,0.0170,313.5376,165.5776,199.5551,0,U,43587,999,2887,0,-.347E-5,0
TELSTAR 18V,2018-069A,2026-06-14T18:53:42.897120,1.00270067,.00016127,0.0122,311.2047,128.7151,244.5797,0,U,43611,999,2861,0,-.288E-5,0
AZERSPACE 2 (IS-38),2018-074A,2026-06-16T18:21:44.924256,1.00270536,.0001231,0.0176,5.0049,81.7615,138.8031,0,U,43632,999,2844,0,.134E-5,0
HORIZONS-3E,2018-074B,2026-06-16T17:14:23.729280,1.00271949,.000086,0.0189,168.8622,107.3388,56.3811,0,U,43633,999,2833,0,-.33E-6,0
